ONEWEB-0531             
1 54146U 22138AK  25093.76734768  .00000082  00000+0  17018-3 0  9992
2 54146  87.9335   1.9083 0001145 103.9230 256.2030 13.20770603121301
ONEWEB-0535             
1 54147U 22138AL  25093.79680084 -.00000020  00000+0 -82117-4 0  9994
2 54147  87.9239  32.2762 0001733  86.5491 273.5840 13.19723591118886
ONEWEB-0536             
1 54148U 22138AM  25093.75471839  .00000034  00000+0  50670-4 0  9999
2 54148  87.9335   1.9570 0000925 103.2784 256.8453 13.20769397121297
ONEWEB-0527             
1 54642U 22166A   25093.67804331  .00000017  00000+0  10511-4 0  9998
2 54642  87.9306 331.6381 0001652  79.9669 280.1652 13.21824260113470
ONEWEB-0528             
1 54643U 22166B   25093.68435274  .00000021  00000+0  19066-4 0  9995
2 54643  87.9308 331.6336 0001785  77.0728 283.0605 13.21824404113486
ONEWEB-0539             
1 54644U 22166C   25093.72062877 -.00000074  00000+0 -20954-3 0  9993
2 54644  87.9288 331.6208 0001938  82.6305 277.5049 13.21825475113484
ONEWEB-0540             
1 54645U 22166D   25093.65123150 -.00000060  00000+0 -17557-3 0  9998
2 54645  87.9303 331.6528 0001975  82.1575 277.9783 13.21828149113461
ONEWEB-0542             
1 54646U 22166E   25093.73008218 -.00000102  00000+0 -27750-3 0  9998
2 54646  87.9289 331.6172 0002064  89.0077 271.1293 13.21823627113483
